ONEWEB-0271             
1 48989U 21060Y   25328.58703634 -.00000008  00000+0 -54761-4 0  9999
2 48989  87.9042 269.5124 0002142  81.9151 278.2223 13.16592354212744
ONEWEB-0272             
1 48990U 21060Z   25328.53319905  .00000144  00000+0  34194-3 0  9996
2 48990  87.9023 269.5416 0002064  80.4755 279.6609 13.16593815212685
ONEWEB-0273             
1 48991U 21060AA  25328.55537432 -.00000012  00000+0 -64297-4 0  9990
2 48991  87.9030 269.5313 0002120  75.7074 284.4293 13.16594639212660
ONEWEB-0274             
1 48992U 21060AB  25328.58069578  .00000104  00000+0  23741-3 0  9993
2 48992  87.9016 269.5512 0001939  89.1619 270.9734 13.16592621212701
ONEWEB-0275             
1 48993U 21060AC  25328.56961174 -.00000057  00000+0 -18201-3 0  9999
2 48993  87.9028 269.5221 0002031  80.0064 280.1296 13.16592578212639
ONEWEB-0276             
1 48994U 21060AD  25328.60286291  .00000042  00000+0  75750-4 0  9990
2 48994  87.9033 269.5142 0002000  74.8513 285.2839 13.16592901212655
ONEWEB-0277             
1 48995U 21060AE  25328.53952691  .00000088  00000+0  19739-3 0  9991
2 48995  87.9023 269.5530 0002079  80.1036 280.0329 13.16598895212635
ONEWEB-0278             
1 48996U 21060AF  25328.37804517  .00000094  00000+0  21300-3 0  9991
2 48996  87.9034 269.5553 0001788  72.7041 287.4285 13.16595456212746
ONEWEB-0279             
1 48997U 21060AG  25328.53796137  .00000084  00000+0  18720-3 0  9999
2 48997  87.9036 269.5213 0002175  79.4279 280.7097 13.16593568212693
ONEWEB-0280             
1 48998U 21060AH  25328.55297774  .00000031  00000+0  47831-4 0  9993
2 48998  87.9032 269.5244 0002124  67.0461 293.0894 13.16597339212630
ONEWEB-0281             
1 48999U 21060AJ  25328.33054898 -.00000042  00000+0 -14458-3 0  9990
2 48999  87.9030 269.5646 0001885  80.1099 280.0245 13.16595063212673
ONEWEB-0282             
1 49000U 21060AK  25328.58862137  .00000158  00000+0  37841-3 0  9991
2 49000  87.9028 269.5242 0002066  77.7052 282.4311 13.16593870212684
ONEWEB-0283             
1 49001U 21060AL  25328.57753949 -.00000009  00000+0 -58268-4 0  9995
2 49001  87.9030 269.5266 0002086  80.1046 280.0320 13.16594005212693
ONEWEB-0284             
1 49002U 21060AM  25328.57120672 -.00000021  00000+0 -88003-4 0  9991
2 49002  87.9032 269.5163 0001985  66.7719 293.3620 13.16593306212677
ONEWEB-0285             
1 49075U 21075A   25328.66846105 -.00000344  00000+0 -99251-3 0  9997
2 49075  87.8956  31.2880 0001826  98.9445 261.1890 13.12442808208389
ONEWEB-0286             
1 49076U 21075B   25328.65034793 -.00000051  00000+0 -17588-3 0  9997
2 49076  87.8953  31.3258 0001669 105.6602 254.4711 13.12440846207738
ONEWEB-0287             
1 49077U 21075C   25328.67055250 -.00000119  00000+0 -33929-3 0  9993
2 49077  87.9134  46.5337 0001424 110.5286 249.5998 13.17643611206695
ONEWEB-0288             
1 49078U 21075D   25328.70240087 -.00002459  00000+0 -68703-2 0  9998
2 49078  87.8959  31.2765 0001875  99.5056 260.6284 13.12458770208360
ONEWEB-0289             
1 49079U 21075E   25328.70921322 -.00000005  00000+0 -46119-4 0  9991
2 49079  87.9121  46.5424 0001828  88.6465 271.4876 13.17647277207278
ONEWEB-0290             
1 49080U 21075F   25328.68236242 -.00000041  00000+0 -13750-3 0  9994
2 49080  87.9135  46.5085 0002153  88.5738 271.5640 13.17648275206685
ONEWEB-0291             
1 49081U 21075G   25328.66716858 -.00000039  00000+0 -13287-3 0  9991
2 49081  87.9135  46.5180 0001487  99.4317 260.6982 13.17647151206674
ONEWEB-0293             
1 49082U 21075H   25328.69247875  .00000039  00000+0  68345-4 0  9997
2 49082  87.9126  46.5351 0001822  99.6126 260.5212 13.17647898206705
ONEWEB-0294             
1 49083U 21075J   25328.70888852  .00000500  00000+0  13553-2 0  9998
2 49083  87.8959  31.2766 0001844  85.1758 274.9581 13.12442331207759
ONEWEB-0295             
1 49084U 21075K   25328.69163000 -.00000031  00000+0 -11180-3 0  9994
2 49084  87.9126  46.5400 0001443  99.7448 260.3846 13.17651242206663
ONEWEB-0296             
1 49085U 21075L   25328.68942174  .00000140  00000+0  35399-3 0  9998
2 49085  87.8954  31.2852 0001460  89.0503 271.0793 13.12444422207753
ONEWEB-0297             
1 49086U 21075M   25328.72024433  .00000304  00000+0  81056-3 0  9996
2 49086  87.8954  31.3124 0001712 101.7264 258.4057 13.12441008208360
ONEWEB-0298             
1 49087U 21075N   25328.69599131  .00000009  00000+0 -90849-5 0  9990
2 49087  87.9129  46.5356 0001856 105.5466 254.5870 13.17648091206696
ONEWEB-0299             
1 49088U 21075P   25328.69754497  .00000016  00000+0  93181-5 0  9998
2 49088  87.9135  46.4952 0001641 106.5199 253.6113 13.17648368206676
ONEWEB-0300             
1 49089U 21075Q   25328.71213516  .00000404  00000+0  10886-2 0  9993
2 49089  87.8963  31.2718 0002023 110.7215 249.4131 13.12442033208387
ONEWEB-0301             
1 49090U 21075R   25328.69590823  .00000307  00000+0  81897-3 0  9994
2 49090  87.8956  31.2775 0002059 109.5471 250.5880 13.12442822207742
ONEWEB-0302             
1 49091U 21075S   25328.68292779 -.00000161  00000+0 -48321-3 0  9998
2 49091  87.8958  31.2879 0001715  89.1317 271.0008 13.12443666207725
ONEWEB-0304             
1 49092U 21075T   25328.67223304  .00000026  00000+0  34477-4 0  9992
2 49092  87.9130  46.5317 0001676 101.2887 258.8433 13.17646877206648
ONEWEB-0305             
1 49093U 21075U   25328.66548333  .00000046  00000+0  84841-4 0  9996
2 49093  87.9134  46.5093 0001377 105.8600 254.2684 13.17648685206675
ONEWEB-0308             
1 49094U 21075V   25328.67642757 -.00000327  00000+0 -94424-3 0  9994
2 49094  87.8958  31.2823 0001822 100.0966 260.0368 13.12442402207734
ONEWEB-0309             
1 49095U 21075W   25328.66885683  .00000025  00000+0  30101-4 0  9997
2 49095  87.9132  46.5252 0001786  87.3795 272.7541 13.17647215206647
ONEWEB-0310             
1 49096U 21075X   25328.69103419 -.00005291  00000+0 -14745-1 0  9996
2 49096  87.8949  31.3177 0001687  82.4912 277.6408 13.12471808208363
ONEWEB-0311             
1 49097U 21075Y   25328.67560125  .00000066  00000+0  13657-3 0  9992
2 49097  87.9130  46.5202 0001527 110.1839 249.9457 13.17649987206694
ONEWEB-0312             
1 49098U 21075Z   25328.69079576  .00000057  00000+0  11483-3 0  9995
2 49098  87.9128  46.5435 0001546 102.5878 257.5427 13.17647845206670
ONEWEB-0313             
1 49099U 21075AA  25328.69574291  .00000070  00000+0  14634-3 0  9996
2 49099  87.9123  46.5516 0001650 102.9591 257.1725 13.17650231206667
ONEWEB-0314             
1 49100U 21075AB  25328.66210500  .00000051  00000+0  99130-4 0  9990
2 49100  87.9133  46.5081 0001398  97.7864 262.3427 13.17647448206631
ONEWEB-0315             
1 49101U 21075AC  25328.66508611 -.00000395  00000+0 -11337-2 0  9998
2 49101  87.8955  31.2707 0001577 111.3126 248.8171 13.12442538208345
ONEWEB-0316             
1 49102U 21075AD  25328.67169382 -.00000005  00000+0 -45837-4 0  9990
2 49102  87.9200  16.0885 0001805 102.4660 257.6674 13.18684419210257
ONEWEB-0317             
1 49103U 21075AE  25328.65859426 -.00000316  00000+0 -91382-3 0  9994
2 49103  87.8960  31.2895 0002322  84.4377 275.7017 13.12441696208362
ONEWEB-0318             
1 49104U 21075AF  25328.66839249 -.00000078  00000+0 -23150-3 0  9990
2 49104  87.9200  16.0766 0001622 104.2167 255.9145 13.18683823210214
ONEWEB-0319             
1 49105U 21075AG  25328.67729377 -.00000012  00000+0 -65226-4 0  9991
2 49105  87.9126  46.5409 0001457 111.6384 248.4903 13.17647781206679
ONEWEB-0323             
1 49106U 21075AH  25328.72510479  .00000103  00000+0  25127-3 0  9993
2 49106  87.8961  31.2630 0001163 112.0235 248.1017 13.12441479207739
ONEWEB-0329             
1 49107U 21075AJ  25328.68574103  .00000059  00000+0  11977-3 0  9991
2 49107  87.9123  46.5411 0001669 103.4174 256.7144 13.17648141206650
ONEWEB-0330             
1 49108U 21075AK  25328.68657160  .00000019  00000+0  16037-4 0  9996
2 49108  87.9127  46.5465 0001676  96.2044 263.9279 13.17647585206691
ONEWEB-0292             
1 49186U 21083A   25328.62872583  .00000297  00000+0  77850-3 0  9990
2 49186  87.8986   0.9209 0001687  99.7638 260.3681 13.13469827204073
ONEWEB-0303             
1 49187U 21083B   25328.66509586  .00000043  00000+0  77450-4 0  9991
2 49187  87.9200  16.0780 0001668 100.8374 259.2946 13.18684275203022
ONEWEB-0306             
1 49188U 21083C   25328.65520181  .00000057  00000+0  11273-3 0  9990
2 49188  87.9200  16.0650 0002004  93.0639 267.0722 13.18684132203066
ONEWEB-0307             
1 49189U 21083D   25328.62279122  .00000394  00000+0  10443-2 0  9995
2 49189  87.8984   0.9138 0001789  95.8065 264.3268 13.13468625204079
ONEWEB-0320             
1 49190U 21083E   25328.66262538  .00000085  00000+0  18196-3 0  9995
2 49190  87.9193  16.0933 0001954  87.6967 272.4389 13.18682828203025
ONEWEB-0321             
1 49191U 21083F   25328.65758522 -.00000198  00000+0 -51771-3 0  9991
2 49191  87.9191 315.2233 0002127  82.8567 277.2808 13.20771043209832
ONEWEB-0322             
1 49192U 21083G   25328.69474544  .00000291  00000+0  76202-3 0  9993
2 49192  87.8985   0.9013 0002313  93.9930 266.1464 13.13469665204073
ONEWEB-0324             
1 49193U 21083H   25328.64859395 -.00000244  00000+0 -65066-3 0  9996
2 49193  87.9197  16.0732 0001741  93.0146 267.1185 13.18685536203049
ONEWEB-0325             
1 49194U 21083J   25328.65191007  .00000015  00000+0  49246-5 0  9995
2 49194  87.9199  16.0911 0001884  97.1960 262.9386 13.18684871203056
ONEWEB-0326             
1 49195U 21083K   25328.66688238  .00000030  00000+0  42402-4 0  9997
2 49195  87.9202  16.0758 0001661 106.8764 253.2551 13.18684175203047
ONEWEB-0327             
1 49196U 21083L   25328.66660066  .00000012  00000+0 -18875-5 0  9996
2 49196  87.9191  16.0964 0001758 108.3803 251.7520 13.18684392203064
